ATLAS CENTAUR 2         
1 00694U 63047A   26048.67915622  .00001279  00000+0  14142-3 0  9990
2 00694  30.3578 307.4693 0548131 263.9516  89.8387 14.12008908128796
THOR AGENA D R/B        
1 00733U 64002A   26049.05532313  .00000201  00000+0  89051-4 0  9997
2 00733  99.1229  61.3230 0032227 317.0157  42.8509 14.34007524235482
SL-3 R/B                
1 00877U 64053B   26049.25646680  .00000365  00000+0  94818-4 0  9995
2 00877  65.0773  28.2079 0078870 298.3749  60.9415 14.61346980263954
SL-8 R/B                
1 02802U 67045B   26049.26751151  .00000380  00000+0  11273-3 0  9990
2 02802  74.0114  24.3580 0063436  35.3830 325.1512 14.45601419 86218
SL-8 R/B                
1 03230U 68040B   26049.27585552  .00002930  00000+0  21880-3 0  9991
2 03230  74.0335 353.3544 0024779 183.2793 176.8237 15.03109290 87099
OAO 2                   
1 03597U 68110A   26049.19052772  .00000252  00000+0  73201-4 0  9999
2 03597  34.9948  14.0893 0005083  36.5060 323.5976 14.47295260 16275
ISIS 1                  
1 03669U 69009A   26049.24759729  .00000203  00000+0  12917-3 0  9991
2 03669  88.4555 157.4269 1707840 128.3876 248.3368 11.30407104346331
SERT 2                  
1 04327U 70009A   26049.27858230 -.00000006  00000+0  48313-4 0  9997
2 04327  99.2735 353.4370 0004275 206.1489 313.4699 13.58727687777253
SL-3 R/B                
1 05118U 71028B   26049.22376471  .00031695  00000+0  39655-3 0  9990
2 05118  81.2323  76.0451 0016333   3.0866 357.0483 15.59475068985639
ASTEX 1                 
1 05560U 71089A   26049.23362014  .00000481  00000+0  12232-3 0  9998
2 05560  92.7144 145.4660 0016985 144.0490 216.1862 14.50746455859483
SL-8 R/B                
1 05730U 71119B   26049.24070496  .00015195  00000+0  78807-3 0  9990
2 05730  73.8853 212.0548 0552350 182.7009 177.1141 14.37232019652692
OAO 3 (COPERNICUS)      
1 06153U 72065A   26049.10794561  .00000375  00000+0  81349-4 0  9992
2 06153  35.0063  48.8767 0006596 355.0129  60.9486 14.59979920843334
