CCSDS_OMM_VERS = 2.0
CREATION_DATE  = 
ORIGINATOR     = 

OBJECT_NAME    = ATLAS CENTAUR 2
OBJECT_ID      = 1963-047A
CENTER_NAME    = EARTH
REF_FRAME      = TEME
TIME_SYSTEM    = UTC
MEAN_ELEMENT_THEORY = SGP/SGP4

EPOCH          = 2026-02-17T16:17:59.097408
MEAN_MOTION    = 14.12008908
ECCENTRICITY   = .05481319
INCLINATION    = 30.3578
RA_OF_ASC_NODE = 307.4693
ARG_OF_PERICENTER = 263.9516
MEAN_ANOMALY   = 89.8387

EPHEMERIS_TYPE = 0
CLASSIFICATION_TYPE = U
NORAD_CAT_ID   = 694
ELEMENT_SET_NO = 999
REV_AT_EPOCH   = 12879
BSTAR          = .14142148E-3
MEAN_MOTION_DOT = .1279E-4
MEAN_MOTION_DDOT = 0

CCSDS_OMM_VERS = 2.0
CREATION_DATE  = 
ORIGINATOR     = 

OBJECT_NAME    = THOR AGENA D R/B
OBJECT_ID      = 1964-002A
CENTER_NAME    = EARTH
REF_FRAME      = TEME
TIME_SYSTEM    = UTC
MEAN_ELEMENT_THEORY = SGP/SGP4

EPOCH          = 2026-02-18T01:19:39.918432
MEAN_MOTION    = 14.34007524
ECCENTRICITY   = .00322271
INCLINATION    = 99.1229
RA_OF_ASC_NODE = 61.3230
ARG_OF_PERICENTER = 317.0157
MEAN_ANOMALY   = 42.8509

EPHEMERIS_TYPE = 0
CLASSIFICATION_TYPE = U
NORAD_CAT_ID   = 733
ELEMENT_SET_NO = 999
REV_AT_EPOCH   = 23548
BSTAR          = .89051142E-4
MEAN_MOTION_DOT = .201E-5
MEAN_MOTION_DDOT = 0

CCSDS_OMM_VERS = 2.0
CREATION_DATE  = 
ORIGINATOR     = 

OBJECT_NAME    = SL-3 R/B
OBJECT_ID      = 1964-053B
CENTER_NAME    = EARTH
REF_FRAME      = TEME
TIME_SYSTEM    = UTC
MEAN_ELEMENT_THEORY = SGP/SGP4

EPOCH          = 2026-02-18T06:09:18.731520
MEAN_MOTION    = 14.61346980
ECCENTRICITY   = .00788705
INCLINATION    = 65.0773
RA_OF_ASC_NODE = 28.2079
ARG_OF_PERICENTER = 298.3749
MEAN_ANOMALY   = 60.9415

EPHEMERIS_TYPE = 0
CLASSIFICATION_TYPE = U
NORAD_CAT_ID   = 877
ELEMENT_SET_NO = 999
REV_AT_EPOCH   = 26395
BSTAR          = .94818149E-4
MEAN_MOTION_DOT = .365E-5
MEAN_MOTION_DDOT = 0

CCSDS_OMM_VERS = 2.0
CREATION_DATE  = 
ORIGINATOR     = 

OBJECT_NAME    = SL-8 R/B
OBJECT_ID      = 1967-045B
CENTER_NAME    = EARTH
REF_FRAME      = TEME
TIME_SYSTEM    = UTC
MEAN_ELEMENT_THEORY = SGP/SGP4

EPOCH          = 2026-02-18T06:25:12.994464
MEAN_MOTION    = 14.45601419
ECCENTRICITY   = .00634364
INCLINATION    = 74.0114
RA_OF_ASC_NODE = 24.3580
ARG_OF_PERICENTER = 35.3830
MEAN_ANOMALY   = 325.1512

EPHEMERIS_TYPE = 0
CLASSIFICATION_TYPE = U
NORAD_CAT_ID   = 2802
ELEMENT_SET_NO = 999
REV_AT_EPOCH   = 8621
BSTAR          = .11272787E-3
MEAN_MOTION_DOT = .38E-5
MEAN_MOTION_DDOT = 0

CCSDS_OMM_VERS = 2.0
CREATION_DATE  = 
ORIGINATOR     = 

OBJECT_NAME    = SL-8 R/B
OBJECT_ID      = 1968-040B
CENTER_NAME    = EARTH
REF_FRAME      = TEME
TIME_SYSTEM    = UTC
MEAN_ELEMENT_THEORY = SGP/SGP4

EPOCH          = 2026-02-18T06:37:13.916928
MEAN_MOTION    = 15.03109290
ECCENTRICITY   = .00247794
INCLINATION    = 74.0335
RA_OF_ASC_NODE = 353.3544
ARG_OF_PERICENTER = 183.2793
MEAN_ANOMALY   = 176.8237

EPHEMERIS_TYPE = 0
CLASSIFICATION_TYPE = U
NORAD_CAT_ID   = 3230
ELEMENT_SET_NO = 999
REV_AT_EPOCH   = 8709
BSTAR          = .2188009E-3
MEAN_MOTION_DOT = .293E-4
MEAN_MOTION_DDOT = 0

CCSDS_OMM_VERS = 2.0
CREATION_DATE  = 
ORIGINATOR     = 

OBJECT_NAME    = OAO 2
OBJECT_ID      = 1968-110A
CENTER_NAME    = EARTH
REF_FRAME      = TEME
TIME_SYSTEM    = UTC
MEAN_ELEMENT_THEORY = SGP/SGP4

EPOCH          = 2026-02-18T04:34:21.595008
MEAN_MOTION    = 14.47295260
ECCENTRICITY   = .0005083
INCLINATION    = 34.9948
RA_OF_ASC_NODE = 14.0893
ARG_OF_PERICENTER = 36.5060
MEAN_ANOMALY   = 323.5976

EPHEMERIS_TYPE = 0
CLASSIFICATION_TYPE = U
NORAD_CAT_ID   = 3597
ELEMENT_SET_NO = 999
REV_AT_EPOCH   = 1627
BSTAR          = .73200847E-4
MEAN_MOTION_DOT = .252E-5
MEAN_MOTION_DDOT = 0

CCSDS_OMM_VERS = 2.0
CREATION_DATE  = 
ORIGINATOR     = 

OBJECT_NAME    = ISIS 1
OBJECT_ID      = 1969-009A
CENTER_NAME    = EARTH
REF_FRAME      = TEME
TIME_SYSTEM    = UTC
MEAN_ELEMENT_THEORY = SGP/SGP4

EPOCH          = 2026-02-18T05:56:32.405856
MEAN_MOTION    = 11.30407104
ECCENTRICITY   = .17078408
INCLINATION    = 88.4555
RA_OF_ASC_NODE = 157.4269
ARG_OF_PERICENTER = 128.3876
MEAN_ANOMALY   = 248.3368

EPHEMERIS_TYPE = 0
CLASSIFICATION_TYPE = U
NORAD_CAT_ID   = 3669
ELEMENT_SET_NO = 999
REV_AT_EPOCH   = 34633
BSTAR          = .12916823E-3
MEAN_MOTION_DOT = .203E-5
MEAN_MOTION_DDOT = 0

CCSDS_OMM_VERS = 2.0
CREATION_DATE  = 
ORIGINATOR     = 

OBJECT_NAME    = SERT 2
OBJECT_ID      = 1970-009A
CENTER_NAME    = EARTH
REF_FRAME      = TEME
TIME_SYSTEM    = UTC
MEAN_ELEMENT_THEORY = SGP/SGP4

EPOCH          = 2026-02-18T06:41:09.510720
MEAN_MOTION    = 13.58727687
ECCENTRICITY   = .00042754
INCLINATION    = 99.2735
RA_OF_ASC_NODE = 353.4370
ARG_OF_PERICENTER = 206.1489
MEAN_ANOMALY   = 313.4699

EPHEMERIS_TYPE = 0
CLASSIFICATION_TYPE = U
NORAD_CAT_ID   = 4327
ELEMENT_SET_NO = 999
REV_AT_EPOCH   = 77725
BSTAR          = .48313416E-4
MEAN_MOTION_DOT = -.6E-7
MEAN_MOTION_DDOT = 0

CCSDS_OMM_VERS = 2.0
CREATION_DATE  = 
ORIGINATOR     = 

OBJECT_NAME    = SL-3 R/B
OBJECT_ID      = 1971-028B
CENTER_NAME    = EARTH
REF_FRAME      = TEME
TIME_SYSTEM    = UTC
MEAN_ELEMENT_THEORY = SGP/SGP4

EPOCH          = 2026-02-18T05:22:13.270944
MEAN_MOTION    = 15.59475068
ECCENTRICITY   = .00163338
INCLINATION    = 81.2323
RA_OF_ASC_NODE = 76.0451
ARG_OF_PERICENTER = 3.0866
MEAN_ANOMALY   = 357.0483

EPHEMERIS_TYPE = 0
CLASSIFICATION_TYPE = U
NORAD_CAT_ID   = 5118
ELEMENT_SET_NO = 999
REV_AT_EPOCH   = 98563
BSTAR          = .39655078E-3
MEAN_MOTION_DOT = .31695E-3
MEAN_MOTION_DDOT = 0

CCSDS_OMM_VERS = 2.0
CREATION_DATE  = 
ORIGINATOR     = 

OBJECT_NAME    = ASTEX 1
OBJECT_ID      = 1971-089A
CENTER_NAME    = EARTH
REF_FRAME      = TEME
TIME_SYSTEM    = UTC
MEAN_ELEMENT_THEORY = SGP/SGP4

EPOCH          = 2026-02-18T05:36:24.780096
MEAN_MOTION    = 14.50746455
ECCENTRICITY   = .00169858
INCLINATION    = 92.7144
RA_OF_ASC_NODE = 145.4660
ARG_OF_PERICENTER = 144.0490
MEAN_ANOMALY   = 216.1862

EPHEMERIS_TYPE = 0
CLASSIFICATION_TYPE = U
NORAD_CAT_ID   = 5560
ELEMENT_SET_NO = 999
REV_AT_EPOCH   = 85948
BSTAR          = .12231667E-3
MEAN_MOTION_DOT = .481E-5
MEAN_MOTION_DDOT = 0

CCSDS_OMM_VERS = 2.0
CREATION_DATE  = 
ORIGINATOR     = 

OBJECT_NAME    = SL-8 R/B
OBJECT_ID      = 1971-119B
CENTER_NAME    = EARTH
REF_FRAME      = TEME
TIME_SYSTEM    = UTC
MEAN_ELEMENT_THEORY = SGP/SGP4

EPOCH          = 2026-02-18T05:46:36.908544
MEAN_MOTION    = 14.37232019
ECCENTRICITY   = .05523504
INCLINATION    = 73.8853
RA_OF_ASC_NODE = 212.0548
ARG_OF_PERICENTER = 182.7009
MEAN_ANOMALY   = 177.1141

EPHEMERIS_TYPE = 0
CLASSIFICATION_TYPE = U
NORAD_CAT_ID   = 5730
ELEMENT_SET_NO = 999
REV_AT_EPOCH   = 65269
BSTAR          = .78807282E-3
MEAN_MOTION_DOT = .15195E-3
MEAN_MOTION_DDOT = 0

CCSDS_OMM_VERS = 2.0
CREATION_DATE  = 
ORIGINATOR     = 

OBJECT_NAME    = OAO 3 (COPERNICUS)
OBJECT_ID      = 1972-065A
CENTER_NAME    = EARTH
REF_FRAME      = TEME
TIME_SYSTEM    = UTC
MEAN_ELEMENT_THEORY = SGP/SGP4

EPOCH          = 2026-02-18T02:35:26.500704
MEAN_MOTION    = 14.59979920
ECCENTRICITY   = .00065962
INCLINATION    = 35.0063
RA_OF_ASC_NODE = 48.8767
ARG_OF_PERICENTER = 355.0129
MEAN_ANOMALY   = 60.9486

EPHEMERIS_TYPE = 0
CLASSIFICATION_TYPE = U
NORAD_CAT_ID   = 6153
ELEMENT_SET_NO = 999
REV_AT_EPOCH   = 84333
BSTAR          = .81349007E-4
MEAN_MOTION_DOT = .375E-5
MEAN_MOTION_DDOT = 0

